NORAD_CAT_ID,OBJECT_NAME,OBJECT_TYPE,EPOCH,MEAN_MOTION,ECCENTRICITY,INCLINATION,RA_OF_ASC_NODE,ARG_OF_PERICENTER,MEAN_ANOMALY,BSTAR,MEAN_MOTION_DOT,MEAN_MOTION_DDOT,TLE_LINE0,TLE_LINE1,TLE_LINE2,SEMIMAJOR_AXIS,PERIOD,APOGEE,PERIGEE,DECAYED
53829.0,STARLINK-4759,PAYLOAD,2022-11-27 14:00:01,15.08819577,0.0001409999999999,53.2154,282.6465,64.3918,81.9542,-0.0007091,-0.00011549,0.0,0 STARLINK-4759,1 53829U 22114M   22331.58334491 -.00011549  00000-0 -70910-3 0  9997,2 53829  53.2154 282.6465 0001410  64.3918  81.9542 15.08819577  1303,6917.943,95.439,540.783,538.832,0.0
53829.0,STARLINK-4759,PAYLOAD,2022-11-27 22:00:00,15.08824466,0.0001431999999999,53.2156,281.1499,69.6338,88.2701,0.00033155,4.99e-05,0.0,0 STARLINK-4759,1 53829U 22114M   22331.91667824  .00004990  00000-0  33155-3 0  9993,2 53829  53.2156 281.1499 0001432  69.6338  88.2701 15.08824466  1304,6917.928000000001,95.439,540.784,538.802,0.0
53829.0,STARLINK-4759,PAYLOAD,2022-11-28 08:00:01,15.0881394,0.0001519,53.215,279.2812,59.5986,202.7876,0.0032947,0.000525,0.0,0 STARLINK-4759,1 53829U 22114M   22332.33334491  .00052500  00000-0  32947-2 0  9998,2 53829  53.2150 279.2812 0001519  59.5986 202.7876 15.08813940 11524,6917.96,95.439,540.876,538.774,0.0
53829.0,STARLINK-4759,PAYLOAD,2022-11-28 22:00:01,15.08863783,0.000143,53.2152,276.661,70.8889,121.8474,-0.00013795,-2.484e-05,0.0,0 STARLINK-4759,1 53829U 22114M   22332.91668981 -.00002484  00000-0 -13795-3 0  9995,2 53829  53.2152 276.6610 0001430  70.8889 121.8474 15.08863783 11618,6917.808000000001,95.436,540.6619999999998,538.683,0.0
53829.0,STARLINK-4759,PAYLOAD,2022-11-29 14:00:01,15.08832721,0.0001403,53.2145,273.6681,67.383,148.5871,-0.0017737,-0.000284,0.0,0 STARLINK-4759,1 53829U 22114M   22333.58335648 -.00028400  00000-0 -17737-2 0  9995,2 53829  53.2145 273.6681 0001403  67.3830 148.5871 15.08832721 11718,6917.903,95.438,540.738,538.797,0.0
53829.0,STARLINK-4759,PAYLOAD,2022-11-29 22:00:00,15.08834903,0.0001485,53.2144,272.172,72.249,155.2283,-0.00033231,-5.572e-05,0.0,0 STARLINK-4759,1 53829U 22114M   22333.91667824 -.00005572  00000-0 -33231-3 0  9999,2 53829  53.2144 272.1720 0001485  72.2490 155.2283 15.08834903  1302,6917.896,95.438,540.788,538.734,0.0
53829.0,STARLINK-4759,PAYLOAD,2022-11-30 06:00:00,15.08814478,0.0001615,53.2141,270.677,64.1691,174.8991,0.0022699,0.00035997,0.0,0 STARLINK-4759,1 53829U 22114M   22334.25001157  .00035997  00000-0  22699-2 0  9995,2 53829  53.2141 270.6770 0001615  64.1691 174.8991 15.08814478 11810,6917.958000000001,95.439,540.941,538.706,0.0
53829.0,STARLINK-4759,PAYLOAD,2022-11-30 14:00:01,15.08823536,0.0001563,53.2145,269.1787,71.2258,179.4928,-0.00084448,-0.00013697,0.0,0 STARLINK-4759,1 53829U 22114M   22334.58335648 -.00013697  00000-0 -84448-3 0  9992,2 53829  53.2145 269.1787 0001563  71.2258 179.4928 15.08823536  1304,6917.931,95.439,540.877,538.714,0.0
53829.0,STARLINK-4759,PAYLOAD,2022-11-30 22:00:00,15.08814656,0.000159,53.2155,267.6819,74.7351,187.4893,0.0030518,0.00048583,0.0,0 STARLINK-4759,1 53829U 22114M   22334.91667824  .00048583  00000-0  30518-2 0  9991,2 53829  53.2155 267.6819 0001590  74.7351 187.4893 15.08814656 11917,6917.958000000001,95.439,540.923,538.7230000000002,0.0
53829.0,STARLINK-4759,PAYLOAD,2022-12-01 14:00:01,15.08840443,0.0001651,53.2136,264.6893,72.2107,213.2062,0.0014345,0.00022616,0.0,0 STARLINK-4759,1 53829U 22114M   22335.58334491  .00022616  00000-0  14345-2 0  9995,2 53829  53.2136 264.6893 0001651  72.2107 213.2062 15.08840443  1306,6917.879,95.438,540.886,538.602,0.0
53829.0,STARLINK-4759,PAYLOAD,2022-12-01 22:00:00,15.08886483,0.0001676999999999,53.2136,263.1931,72.749,224.265,-0.0035596,-0.00056567,0.0,0 STARLINK-4759,1 53829U 22114M   22335.91667824 -.00056567  00000-0 -35596-2 0  9996,2 53829  53.2136 263.1931 0001677  72.7490 224.2650 15.08886483 12065,6917.738,95.435,540.763,538.443,0.0
53829.0,STARLINK-4759,PAYLOAD,2022-12-02 14:00:01,15.08815633,0.0001527,53.2138,260.1995,68.5774,251.6706,0.0019351,0.00030623,0.0,0 STARLINK-4759,1 53829U 22114M   22336.58334491  .00030623  00000-0  19351-2 0  9995,2 53829  53.2138 260.1995 0001527  68.5774 251.6706 15.08815633  1306,6917.955,95.439,540.876,538.763,0.0
53829.0,STARLINK-4759,PAYLOAD,2022-12-02 16:00:00,15.08806067,0.0001491,53.2136,259.825,70.2066,342.9395,0.0037574,0.00059964,0.0,0 STARLINK-4759,1 53829U 22114M   22336.66667824  .00059964  00000-0  37574-2 0  9999,2 53829  53.2136 259.8250 0001491  70.2066 342.9395 15.08806067 12184,6917.984,95.44,540.881,538.818,0.0
53829.0,STARLINK-4759,PAYLOAD,2022-12-02 22:00:00,15.08864613,0.0001555,53.2139,258.7034,68.4242,263.3927,-0.0034663,-0.0005507,0.0,0 STARLINK-4759,1 53829U 22114M   22336.91667824 -.00055070  00000-0 -34663-2 0  9999,2 53829  53.2139 258.7034 0001555  68.4242 263.3927 15.08864613  1301,6917.805,95.436,540.746,538.594,0.0
53829.0,STARLINK-4759,PAYLOAD,2022-12-03 08:00:01,15.08823394,0.0001565999999999,53.2139,256.8336,59.2342,17.0774,0.0010149,0.00015894,0.0,0 STARLINK-4759,1 53829U 22114M   22337.33334491  .00015894  00000-0  10149-2 0  9998,2 53829  53.2139 256.8336 0001566  59.2342  17.0774 15.08823394 12280,6917.931,95.439,540.879,538.7130000000002,0.0
53829.0,STARLINK-4759,PAYLOAD,2022-12-03 14:00:01,15.08815742,0.0001465,53.2143,255.7099,66.5966,288.4067,0.0022809,0.00036175,0.0,0 STARLINK-4759,1 53829U 22114M   22337.58334491  .00036175  00000-0  22809-2 0  9996,2 53829  53.2143 255.7099 0001465  66.5966 288.4067 15.08815742  1308,6917.955,95.439,540.8330000000002,538.806,0.0
53829.0,STARLINK-4759,PAYLOAD,2022-12-03 22:00:00,15.08831354,0.0001569,53.2154,254.2138,63.8133,302.7671,-0.0035918,-0.00056986,0.0,0 STARLINK-4759,1 53829U 22114M   22337.91667824 -.00056986  00000-0 -35918-2 0  9991,2 53829  53.2154 254.2138 0001569  63.8133 302.7671 15.08831354 12376,6917.906999999997,95.438,540.857,538.686,0.0
53829.0,STARLINK-4759,PAYLOAD,2022-12-04 14:00:01,15.08788945,0.000147,53.2148,251.2206,61.3575,328.3376,0.0030086,0.00047852,0.0,0 STARLINK-4759,1 53829U 22114M   22338.58334491  .00047852  00000-0  30086-2 0  9997,2 53829  53.2148 251.2206 0001470  61.3575 328.3376 15.08788945 12470,6918.036,95.441,540.918,538.884,0.0
53829.0,STARLINK-4759,PAYLOAD,2022-12-04 22:00:00,15.08838578,0.0001581,53.215,249.7251,60.6194,340.6251,-0.00086914,-0.00014093,0.0,0 STARLINK-4759,1 53829U 22114M   22338.91667824 -.00014093  00000-0 -86914-3 0  9998,2 53829  53.2150 249.7251 0001581  60.6194 340.6251 15.08838578  1304,6917.885,95.438,540.8430000000002,538.656,0.0
53829.0,STARLINK-4759,PAYLOAD,2022-12-05 14:00:01,15.08831178,0.0001496,53.2151,246.7313,62.7377,1.7695,0.0034333,0.00054765,0.0,0 STARLINK-4759,1 53829U 22114M   22339.58335648  .00054765  00000-0  34333-2 0  9993,2 53829  53.2151 246.7313 0001496  62.7377   1.7695 15.08831178  1308,6917.906999999997,95.438,540.807,538.737,0.0
53829.0,STARLINK-4759,PAYLOAD,2022-12-05 16:00:00,15.08838917,0.0001508,53.215,246.3571,64.2855,93.0579,0.0033386,0.00053246,0.0,0 STARLINK-4759,1 53829U 22114M   22339.66667824  .00053246  00000-0  33386-2 0  9996,2 53829  53.2150 246.3571 0001508  64.2855  93.0579 15.08838917 12632,6917.884,95.438,540.7919999999998,538.705,0.0
53829.0,STARLINK-4759,PAYLOAD,2022-12-06 04:01:24,15.08840193,0.0001565999999999,53.2153,244.109,67.4316,292.6842,0.00027424,4.079e-05,0.0,0 STARLINK-4759,1 53829U 22114M   22340.16764832  .00004079  00000-0  27424-3 0  9997,2 53829  53.2153 244.1090 0001566  67.4316 292.6842 15.08840193 12716,6917.88,95.438,540.828,538.661,0.0
53829.0,STARLINK-4759,PAYLOAD,2022-12-06 10:22:57,15.08844828,0.0001587,53.2152,242.9194,60.4315,299.6835,0.00016906,2.404e-05,0.0,0 STARLINK-4759,1 53829U 22114M   22340.43260868  .00002404  00000-0  16906-3 0  9990,2 53829  53.2152 242.9194 0001587  60.4315 299.6835 15.08844828 13293,6917.866,95.437,540.828,538.633,0.0
53829.0,STARLINK-4759,PAYLOAD,2022-12-07 02:16:50,15.08832056,0.0001571,53.2165,239.9492,73.8391,286.2774,5.2169e-05,5.42e-06,0.0,0 STARLINK-4759,1 53829U 22114M   22341.09502472  .00000542  00000-0  52169-4 0  9996,2 53829  53.2165 239.9492 0001571  73.8391 286.2774 15.08832056 12854,6917.905,95.438,540.856,538.683,0.0
53829.0,STARLINK-4759,PAYLOAD,2022-12-07 10:13:45,15.08875372,0.0001452,53.2161,238.4584,56.6985,303.4146,-0.00062398,-0.00010215,0.0,0 STARLINK-4759,1 53829U 22114M   22341.42621796 -.00010215  00000-0 -62398-3 0  9998,2 53829  53.2161 238.4584 0001452  56.6985 303.4146 15.08875372 12901,6917.772,95.435,540.6419999999998,538.633,0.0
53829.0,STARLINK-4759,PAYLOAD,2022-12-07 16:35:18,15.08832514,0.000154,53.2158,237.2692,55.8773,304.2365,-0.00011791,-2.164e-05,0.0,0 STARLINK-4759,1 53829U 22114M   22341.69119100 -.00002164  00000-0 -11791-3 0  9993,2 53829  53.2158 237.2692 0001540  55.8773 304.2365 15.08832514 12945,6917.903,95.438,540.8340000000002,538.703,0.0
53829.0,STARLINK-4759,PAYLOAD,2022-12-07 21:21:27,15.0884834,0.0001601,53.2154,236.3771,59.1473,300.9676,-9.3534e-05,-1.777e-05,0.0,0 STARLINK-4759,1 53829U 22114M   22341.88990111 -.00001777  00000-0 -93534-4 0  9998,2 53829  53.2154 236.3771 0001601  59.1473 300.9676 15.08848340 12976,6917.855,95.437,540.827,538.612,0.0
53829.0,STARLINK-4759,PAYLOAD,2022-12-08 10:04:30,15.0886229,0.00015,53.2154,233.9979,58.5643,301.5495,3.2423000000000004e-05,2.28e-06,0.0,0 STARLINK-4759,1 53829U 22114M   22342.41980181  .00000228  00000-0  32423-4 0  9992,2 53829  53.2154 233.9979 0001500  58.5643 301.5495 15.08862290 13594,6917.812,95.436,540.715,538.64,0.0
53829.0,STARLINK-4759,PAYLOAD,2022-12-09 00:22:59,15.08850644,0.0001401,53.2159,231.3231,66.7341,293.3799,8.397899999999999e-05,1.049e-05,0.0,0 STARLINK-4759,1 53829U 22114M   22343.01596097  .00001049  00000-0  83979-4 0  9992,2 53829  53.2159 231.3231 0001401  66.7341 293.3799 15.08850644 13144,6917.848000000001,95.437,540.682,538.744,0.0
